1 41019U 15062A   18279.28420938  .00000039  00000-0  00000-0 0  9994
2 41019  55.1009 141.3643 0039236 202.0033 157.9223  2.00564463 21453
1 41019U 15062A   18280.28136629  .00000044  00000-0  00000-0 0  9993
2 41019  55.1012 141.3247 0039263 201.9930 157.9354  2.00564471 21477
1 41019U 15062A   18280.77994449  .00000044  00000-0  00000+0 0  9998
2 41019  55.1014 141.3048 0039272 201.9976 157.9316  2.00564455 21489
1 41019U 15062A   18281.27852087  .00000044  00000-0  00000+0 0  9995
2 41019  55.1015 141.2850 0039297 201.9743 157.9553  2.00564486 21497
1 41019U 15062A   18281.27852087  .00000044  00000-0  00000-0 0  9996
2 41019  55.1015 141.2850 0039297 201.9743 157.9553  2.00564486 21497
1 41019U 15062A   18282.27567227  .00000039  00000-0  00000-0 0  9990
2 41019  55.1018 141.2453 0039331 201.9458 157.9831  2.00564520 21512
1 41019U 15062A   18282.77424797  .00000035  00000-0  00000+0 0  9994
2 41019  55.1020 141.2255 0039355 201.9117 158.0162  2.00564509 21520
1 41019U 15062A   18283.27282200  .00000031  00000-0  00000-0 0  9998
2 41019  55.1021 141.2056 0039373 201.8962 158.0302  2.00564531 21539
1 41019U 15062A   18283.77139550  .00000026  00000-0  00000+0 0  9995
2 41019  55.1022 141.1858 0039391 201.8762 158.0484  2.00564557 21547
1 41019U 15062A   18284.26996887  .00000020  00000-0  00000-0 0  9999
2 41019  55.1024 141.1660 0039411 201.8571 158.0656  2.00564577 21555
1 41019U 15062A   18285.26711614  .00000010  00000-0  00000+0 0  9991
2 41019  55.1027 141.1263 0039439 201.8470 158.0713  2.00564576 21570
1 41019U 15062A   18285.26711739  .00000010  00000-0  00000-0 0  9990
2 41019  55.1027 141.1263 0039446 201.8384 158.0799  2.00564534 21570
1 41019U 15062A   18285.76568998  .00000006  00000-0  00000+0 0  9996
2 41019  55.1029 141.1064 0039466 201.8314 158.0848  2.00564574 21586
1 41019U 15062A   18286.26426362  .00000003  00000-0  00000+0 0  9997
2 41019  55.1030 141.0866 0039485 201.8193 158.0950  2.00564587 21592
1 41019U 15062A   18286.26426362  .00000003  00000-0  00000-0 0  9998
2 41019  55.1030 141.0866 0039485 201.8193 158.0950  2.00564587 21592
1 41019U 15062A   18287.75998649  .00000001  00000-0  00000+0 0  9992
2 41019  55.1035 141.0271 0039545 201.7770 158.1335  2.00564644 21620
1 41019U 15062A   18289.25571495  .00000011  00000-0  00000-0 0  9997
2 41019  55.1040 140.9676 0039599 201.7560 158.1540  2.00564657 21654
1 41019U 15062A   18289.25571573  .00000011  00000-0  00000+0 0  9993
2 41019  55.1040 140.9676 0039594 201.7600 158.1500  2.00564629 21659
1 41019U 15062A   18289.75429178  .00000017  00000-0  00000+0 0  9997
2 41019  55.1042 140.9478 0039612 201.7478 158.1628  2.00564672 21665
1 41019U 15062A   18290.25286922  .00000023  00000-0  00000-0 0  9990
2 41019  55.1044 140.9280 0039635 201.7347 158.1769  2.00564683 21677
1 41019U 15062A   18290.75144742  .00000029  00000-0  00000+0 0  9993
2 41019  55.1046 140.9082 0039651 201.7269 158.1859  2.00564677 21684
1 41019U 15062A   18291.25002508  .00000036  00000-0  00000-0 0  9991
2 41019  55.1047 140.8884 0039668 201.7117 158.2027  2.00564702 21692
1 41019U 15062A   18292.24718238  .00000050  00000-0  00000+0 0  9990
2 41019  55.1050 140.8487 0039689 201.7033 158.2145  2.00564686 21710
1 41019U 15062A   18292.24718300  .00000050  00000-0  00000-0 0  9991
2 41019  55.1050 140.8487 0039705 201.6795 158.2384  2.00564676 21717
1 41019U 15062A   18292.74576176  .00000056  00000-0  00000+0 0  9994
2 41019  55.1052 140.8289 0039722 201.6704 158.2492  2.00564670 21723
1 41019U 15062A   18293.24434053  .00000062  00000-0  00000-0 0  9995
2 41019  55.1054 140.8090 0039741 201.6554 158.2660  2.00564658 21733
1 41019U 15062A   18294.24149665  .00000072  00000-0  00000+0 0  9998
2 41019  55.1057 140.7694 0039775 201.6452 158.2791  2.00564654 21752
1 41019U 15062A   18294.24149665  .00000072  00000-0  00000-0 0  9999
2 41019  55.1057 140.7694 0039775 201.6452 158.2791  2.00564654 21752
1 41019U 15062A   18294.24149695  .00000072  00000-0  00000+0 0  9991
2 41019  55.1057 140.7694 0039772 201.6506 158.2737  2.00564647 21751
1 41019U 15062A   18294.24149695  .00000072  00000-0  00000-0 0  9992
2 41019  55.1057 140.7694 0039772 201.6506 158.2737  2.00564647 21751
1 41019U 15062A   18295.73722824  .00000080  00000-0  00000-0 0  9997
2 41019  55.1062 140.7099 0039811 201.6416 158.2845  2.00564616 21789
1 41019U 15062A   18295.73722851  .00000080  00000-0  00000+0 0  9996
2 41019  55.1062 140.7099 0039827 201.6244 158.3018  2.00564602 21783
1 41019U 15062A   18296.23580379  .00000081  00000-0  00000-0 0  9991
2 41019  55.1063 140.6901 0039845 201.6167 158.3092  2.00564612 21805
1 41019U 15062A   18296.73437977  .00000082  00000-0  00000+0 0  9991
2 41019  55.1065 140.6703 0039863 201.6071 158.3180  2.00564573 21805
1 41019U 15062A   18297.23295366  .00000081  00000-0  00000+0 0  9990
2 41019  55.1067 140.6504 0039879 201.6028 158.3210  2.00564584 21812
1 41019U 15062A   18298.23010070  .00000078  00000-0  00000-0 0  9995
2 41019  55.1070 140.6108 0039913 201.5898 158.3301  2.00564560 21836
1 41019U 15062A   18298.72867352  .00000075  00000-0  00000+0 0  9998
2 41019  55.1072 140.5909 0039921 201.6017 158.3155  2.00564551 21847
1 41019U 15062A   18299.72581784  .00000070  00000-0  00000+0 0  9996
2 41019  55.1076 140.5513 0039962 201.5687 158.3426  2.00564527 21865
1 41019U 15062A   18299.72581803  .00000070  00000-0  00000-0 0  9999
2 41019  55.1075 140.5513 0039947 201.5902 158.3211  2.00564529 21861
1 41019U 15062A   18300.22439011  .00000067  00000-0  00000-0 0  9996
2 41019  55.1077 140.5314 0039976 201.5621 158.3461  2.00564509 21878
1 41019U 15062A   18300.72296220  .00000064  00000-0  00000+0 0  9990
2 41019  55.1079 140.5116 0039995 201.5534 158.3518  2.00564499 21886
1 41019U 15062A   18300.72296220  .00000064  00000-0  00000-0 0  9991
2 41019  55.1079 140.5116 0039995 201.5534 158.3518  2.00564499 21886
1 41019U 15062A   18301.22153384  .00000062  00000-0  00000-0 0  9998
2 41019  55.1081 140.4918 0040009 201.5474 158.3549  2.00564520 21899
1 41019U 15062A   18301.72010726  .00000060  00000-0  00000+0 0  9992
2 41019  55.1083 140.4719 0040026 201.5392 158.3607  2.00564493 21904
1 41019U 15062A   18303.21582950  .00000060  00000-0  00000+0 0  9991
2 41019  55.1088 140.4124 0040072 201.5277 158.3673  2.00564490 21935
1 41019U 15062A   18304.21297091  .00000064  00000-0  00000+0 0  9995
2 41019  55.1085 140.3729 0039905 201.8383 158.0517  2.00564611 21957
1 41019U 15062A   18304.21297490  .00000064  00000-0  00000-0 0  9999
2 41019  55.1086 140.3725 0039483 202.1787 157.7163  2.00564663 21957
1 41019U 15062A   18304.21298273  .00000064  00000-0  00000+0 0  9998
2 41019  55.1085 140.3729 0039905 201.8383 158.0602  2.00564611 21952
1 41019U 15062A   18304.21298277  .00000064  00000-0  00000+0 0  9992
2 41019  55.1092 140.3728 0040112 201.5142 158.3802  2.00564442 21958
1 41019U 15062A   18304.46160507  .00000065  00000-0  00000+0 0  9994
2 41019  55.1087 140.3630 0039948 201.7676 337.6493  2.00564557 21958
1 41019U 15062A   18305.21013582  .00000070  00000-0  00000+0 0  9994
2 41019  55.1096 140.3331 0040159 201.5057 158.3896  2.00564474 21978
1 41019U 15062A   18305.21013582  .00000070  00000-0  00000-0 0  9995
2 41019  55.1096 140.3331 0040159 201.5057 158.3896  2.00564474 21978
1 41019U 15062A   18306.20729082  .00000076  00000-0  00000+0 0  9999
2 41019  55.1100 140.2935 0040202 201.4951 158.4019  2.00564486 21997
1 41019U 15062A   18306.20729082  .00000076  00000-0  00000-0 0  9990
2 41019  55.1100 140.2935 0040202 201.4951 158.4019  2.00564486 21997
1 41019U 15062A   18307.20444524  .00000081  00000-0  00000-0 0  9992
2 41019  55.1103 140.2538 0040238 201.4950 158.4032  2.00564500 22013
1 41019U 15062A   18307.70302220  .00000082  00000-0  00000+0 0  9993
2 41019  55.1105 140.2340 0040250 201.5031 158.3953  2.00564492 22023
1 41019U 15062A   18309.69732229  .00000074  00000-0  00000+0 0  9990
2 41019  55.1111 140.1547 0040311 201.5073 158.3870  2.00564516 22061
1 41019U 15062A   18309.69732229  .00000074  00000-0  00000-0 0  9991
2 41019  55.1111 140.1547 0040311 201.5073 158.3870  2.00564516 22061
1 41019U 15062A   18310.69446820  .00000064  00000-0  00000+0 0  9990
2 41019  55.1115 140.1150 0040351 201.4977 158.3919  2.00564545 22089
1 41019U 15062A   18310.69446820  .00000064  00000-0  00000-0 0  9991
2 41019  55.1115 140.1150 0040351 201.4977 158.3919  2.00564545 22089
1 41019U 15062A   18311.69161285  .00000052  00000-0  00000-0 0  9998
2 41019  55.1118 140.0754 0040391 201.4910 158.3928  2.00564565 22107
1 41019U 15062A   18312.19018509  .00000047  00000-0  00000+0 0  9997
2 41019  55.1120 140.0556 0040421 201.4777 158.4030  2.00564583 22111
1 41019U 15062A   18312.68875679  .00000041  00000-0  00000-0 0  9995
2 41019  55.1121 140.0357 0040433 201.4855 158.3921  2.00564596 22124
1 41019U 15062A   18312.68875717  .00000041  00000-0  00000+0 0  9997
2 41019  55.1122 140.0357 0040452 201.4720 158.4056  2.00564597 22128
1 41019U 15062A   18314.68304849  .00000031  00000-0  00000-0 0  9992
2 41019  55.1128 139.9564 0040521 201.4916 158.3760  2.00564630 22168
1 41019U 15062A   18315.18162223  .00000031  00000-0  00000+0 0  9995
2 41019  55.1130 139.9366 0040541 201.4964 158.3695  2.00564648 22173
1 41019U 15062A   18315.18162228  .00000031  00000-0  00000-0 0  9991
2 41019  55.1130 139.9366 0040562 201.4871 158.3788  2.00564661 22171
1 41019U 15062A   18316.67734725  .00000040  00000-0  00000+0 0  9992
2 41019  55.1136 139.8772 0040621 201.4974 158.3660  2.00564700 22204
1 41019U 15062A   18316.67734735  .00000040  00000-0  00000-0 0  9994
2 41019  55.1135 139.8771 0040604 201.5073 158.3562  2.00564683 22205
1 41019U 15062A   18317.67450031  .00000051  00000-0  00000-0 0  9991
2 41019  55.1139 139.8375 0040644 201.5097 158.3541  2.00564694 22220
